IRIDIUM 156             
1 43576U 18061H   26166.44299076  .00000151  00000+0  46904-4 0  9996
2 43576  86.3961  57.4589 0002052  81.4419 278.7009 14.34217964413129
IRIDIUM 164             
1 43577U 18061J   26166.42396309  .00000111  00000+0  32506-4 0  9991
2 43577  86.3962  57.5071 0002102  88.8808 271.2629 14.34218275413163
IRIDIUM 159             
1 43578U 18061K   26166.39225103  .00000098  00000+0  27916-4 0  9994
2 43578  86.3960  57.4570 0002269  83.8652 276.2803 14.34217798413125
IRIDIUM 180             
1 43922U 19002A   26166.46151537  .00000030  00000+0  35371-5 0  9991
2 43922  86.3970 354.3190 0002266  89.1243 271.0212 14.34217728388747
IRIDIUM 176             
1 43923U 19002B   26166.52772417  .00000665  00000+0  10152-3 0  9997
2 43923  86.6090 354.2352 0002266  92.2128 267.9348 14.72265147399005
IRIDIUM 168             
1 43924U 19002C   26166.52494054  .00000046  00000+0  95257-5 0  9990
2 43924  86.3974 354.3700 0002163  88.8887 271.2556 14.34218167388736
IRIDIUM 173             
1 43925U 19002D   26166.51225530  .00000121  00000+0  36115-4 0  9992
2 43925  86.3968 354.2640 0002201  87.0289 273.1159 14.34218361388716
IRIDIUM 169             
1 43926U 19002E   26166.09601553  .00000246  00000+0  73907-4 0  9997
2 43926  86.4225  26.0678 0001922  71.8873 288.2534 14.38608113389928
IRIDIUM 172             
1 43927U 19002F   26166.50591271  .00000137  00000+0  41844-4 0  9993
2 43927  86.3969 354.2747 0002251  88.8016 271.3437 14.34217948388729
IRIDIUM 175             
1 43928U 19002G   26166.40434101  .00000267  00000+0  72765-4 0  9991
2 43928  86.4511 291.2663 0002264 184.8804 175.2375 14.43611799398723
IRIDIUM 171             
1 43929U 19002H   26166.48688524  .00000495  00000+0  16958-3 0  9994
2 43929  86.3978 354.5884 0002015  89.3958 270.7468 14.34218223388718
IRIDIUM 170             
1 43930U 19002J   26166.53390529  .00000660  00000+0  10081-3 0  9992
2 43930  86.6091 354.2350 0002352  88.8448 271.3039 14.72265604399019
IRIDIUM 167             
1 43931U 19002K   26166.55031083  .00000008  00000+0 -40914-5 0  9999
2 43931  86.3967 354.2784 0001752  90.2189 269.9207 14.34217603388722
IRIDIUM 181             
1 56726U 23068S   26166.23456127  .00000266  00000+0  72926-4 0  9999
2 56726  86.4501  57.6067 0002332  88.4239 271.7229 14.43311436162152
IRIDIUM 177             
1 56727U 23068T   26166.49733259  .00000928  00000+0  11858-3 0  9993
2 56727  86.1960 329.5941 0002373  87.0914 273.0579 14.80227531166117
IRIDIUM 174             
1 56728U 23068U   26166.52156455  .00000683  00000+0  10432-3 0  9990
2 56728  86.6098 354.3875 0002482  84.1944 275.9556 14.72261903165778
IRIDIUM 178             
1 56729U 23068V   26166.35126284  .00000829  00000+0  10571-3 0  9995
2 56729  86.6538  26.1275 0002652  86.4848 273.6677 14.80230775166090
IRIDIUM 179             
1 56730U 23068W   26166.34586377  .00000695  00000+0  87998-4 0  9998
2 56730  86.6780  35.1043 0002442  88.8064 271.3437 14.80234064166091
