OBJECT_NAME,OBJECT_ID,EPOCH,MEAN_MOTION,ECCENTRICITY,INCLINATION,RA_OF_ASC_NODE,ARG_OF_PERICENTER,MEAN_ANOMALY,EPHEMERIS_TYPE,CLASSIFICATION_TYPE,NORAD_CAT_ID,ELEMENT_SET_NO,REV_AT_EPOCH,BSTAR,MEAN_MOTION_DOT,MEAN_MOTION_DDOT
IRIDIUM 156,2018-061H,2026-06-15T10:37:54.401664,14.34217964,.0002052,86.3961,57.4589,81.4419,278.7009,0,U,43576,999,41312,.46904E-4,.151E-5,0
IRIDIUM 164,2018-061J,2026-06-15T10:10:30.410976,14.34218275,.0002102,86.3962,57.5071,88.8808,271.2629,0,U,43577,999,41316,.32506E-4,.111E-5,0
IRIDIUM 159,2018-061K,2026-06-15T09:24:50.488992,14.34217798,.0002269,86.3960,57.4570,83.8652,276.2803,0,U,43578,999,41312,.27916E-4,.98E-6,0
IRIDIUM 180,2019-002A,2026-06-15T11:04:34.927968,14.34217728,.0002266,86.3970,354.3190,89.1243,271.0212,0,U,43922,999,38874,.35371E-5,.3E-6,0
IRIDIUM 176,2019-002B,2026-06-15T12:39:55.368288,14.72265147,.0002266,86.6090,354.2352,92.2128,267.9348,0,U,43923,999,39900,.10152E-3,.665E-5,0
IRIDIUM 168,2019-002C,2026-06-15T12:35:54.862656,14.34218167,.0002163,86.3974,354.3700,88.8887,271.2556,0,U,43924,999,38873,.95257E-5,.46E-6,0
IRIDIUM 173,2019-002D,2026-06-15T12:17:38.857920,14.34218361,.0002201,86.3968,354.2640,87.0289,273.1159,0,U,43925,999,38871,.36115E-4,.121E-5,0
IRIDIUM 169,2019-002E,2026-06-15T02:18:15.741792,14.38608113,.00019225,86.4225,26.0678,71.8873,288.2534,0,U,43926,999,38992,.73907143E-4,.246E-5,0
IRIDIUM 172,2019-002F,2026-06-15T12:08:30.858144,14.34217948,.0002251,86.3969,354.2747,88.8016,271.3437,0,U,43927,999,38872,.41844E-4,.137E-5,0
IRIDIUM 175,2019-002G,2026-06-15T09:42:15.063264,14.43611799,.0002264,86.4511,291.2663,184.8804,175.2375,0,U,43928,999,39872,.72765E-4,.267E-5,0
IRIDIUM 171,2019-002H,2026-06-15T11:41:06.884736,14.34218223,.0002015,86.3978,354.5884,89.3958,270.7468,0,U,43929,999,38871,.16958E-3,.495E-5,0
IRIDIUM 170,2019-002J,2026-06-15T12:48:49.417056,14.72265604,.0002352,86.6091,354.2350,88.8448,271.3039,0,U,43930,999,39901,.10081E-3,.66E-5,0
IRIDIUM 167,2019-002K,2026-06-15T13:12:26.855712,14.34217603,.0001752,86.3967,354.2784,90.2189,269.9207,0,U,43931,999,38872,-.40914E-5,.8E-7,0
IRIDIUM 181,2023-068S,2026-06-15T05:37:46.093728,14.43311436,.0002332,86.4501,57.6067,88.4239,271.7229,0,U,56726,999,16215,.72926E-4,.266E-5,0
IRIDIUM 177,2023-068T,2026-06-15T11:56:09.535776,14.80227531,.0002373,86.1960,329.5941,87.0914,273.0579,0,U,56727,999,16611,.11858E-3,.928E-5,0
IRIDIUM 174,2023-068U,2026-06-15T12:31:03.177120,14.72261903,.0002482,86.6098,354.3875,84.1944,275.9556,0,U,56728,999,16577,.10432E-3,.683E-5,0
IRIDIUM 178,2023-068V,2026-06-15T08:25:49.109376,14.80230775,.0002652,86.6538,26.1275,86.4848,273.6677,0,U,56729,999,16609,.10571E-3,.829E-5,0
IRIDIUM 179,2023-068W,2026-06-15T08:18:02.629728,14.80234064,.0002442,86.6780,35.1043,88.8064,271.3437,0,U,56730,999,16609,.87998E-4,.695E-5,0
